DELTA 2 R/B(1)          
1 20453U 90008B   26148.76259670  .00081761  00000+0  67580-3 0  9995
2 20453  35.6029   5.3129 0070895 291.6361  67.6838 15.65709608938654
COSMOS 2058             
1 20465U 90010A   26148.61188536  .00003646  00000+0  21119-3 0  9991
2 20465  82.4670 328.6635 0010774  61.6710 298.5605 15.11879167954312
SL-14 R/B               
1 20466U 90010B   26148.60931625  .00000403  00000+0  45786-4 0  9991
2 20466  82.5027 192.3307 0020742  40.2076 320.0669 14.83632559940334
SL-14 R/B               
1 20511U 90018B   26148.50140985  .00000410  00000+0  48427-4 0  9993
2 20511  82.5198 148.5084 0016032 183.9978 176.1111 14.82201815934401
HST                     
1 20580U 90037B   26148.51786479  .00007286  00000+0  23216-3 0  9991
2 20580  28.4729 214.9832 0001361 293.2319  66.8133 15.30523775785553
SL-16 R/B               
1 20625U 90046B   26148.64940262 -.00000182  00000+0 -69314-4 0  9997
2 20625  70.9968 129.9814 0014608 191.9866 168.0911 14.15018793859703
COSMOS 2084             
1 20663U 90055A   26148.47471153  .00002739  00000+0  20052-3 0  9991
2 20663  62.7912  63.3672 0005957 244.8714 115.1769 15.06022298948331
SL-6 R/B(2)             
1 20666U 90055D   26148.76757992  .00002179  00000+0  16961-3 0  9996
2 20666  62.7840 341.4561 0037546   2.3991 357.7281 15.03925932950233
SL-8 R/B                
1 20775U 90078B   26148.54431883  .00018148  00000+0  51305-3 0  9990
2 20775  82.9019 179.3803 0354201 104.5187 259.5599 14.91607770821191
SL-8 R/B                
1 21088U 91006B   26148.81502791  .00000015  00000+0 -80346-6 0  9992
2 21088  82.9409 110.4448 0022601 167.0000 255.4847 13.77504689775105
OKEAN-3                 
1 21397U 91039A   26148.79454311  .00003690  00000+0  25599-3 0  9999
2 21397  82.5174 259.1843 0015060  60.7305 299.5425 15.05229382877089
COSMOS 2151             
1 21422U 91042A   26148.78623205  .00001426  00000+0  11126-3 0  9997
2 21422  82.4970   6.4048 0013132 142.8372 217.3764 15.00376969875200
SL-14 R/B               
1 21423U 91042B   26148.43631639  .00000435  00000+0  51969-4 0  9999
2 21423  82.4914 145.4181 0016522 344.4267  15.6437 14.81887918864887
ERS-1                   
1 21574U 91050A   26148.63314343  .00000420  00000+0  14890-3 0  9992
2 21574  98.7802 168.8527 0031190 326.9830  32.9409 14.39503957827232
ARIANE 40 R/B           
1 21610U 91050F   26148.63299660  .00000336  00000+0  11303-3 0  9999
2 21610  98.1886 197.8102 0003235 167.1759 192.9515 14.42943615830528
INTERCOSMOS 25          
1 21819U 91086A   26148.55152318  .00000556  00000+0  10994-3 0  9997
2 21819  82.6044 261.6922 1484851 304.7744  42.2160 12.12166720506368
SL-8 R/B                
1 21876U 92008B   26148.57522852  .00000048  00000+0  34172-4 0  9992
2 21876  82.9279 208.3684 0033179 271.4122 200.1848 13.75973307720407
SL-8 R/B                
1 21938U 92020B   26148.84448314  .00000030  00000+0  15484-4 0  9991
2 21938  82.9297  94.2235 0030505  74.5717 314.8669 13.75547064712156
USA 81                  
1 21949U 92023A   26148.78491747  .00000191  00000+0  63192-4 0  9994
2 21949  85.0073  85.2041 0002536 101.6736 258.4742 14.32391983106259
COSMOS 2219             
1 22219U 92076A   26148.59626914 -.00000267  00000+0 -11558-3 0  9992
2 22219  71.0596 211.0269 0015696  76.1329 284.1539 14.14098153729671
SL-16 R/B               
1 22220U 92076B   26148.82957559  .00000269  00000+0  15778-3 0  9990
2 22220  71.0015  19.5601 0013929 324.8407 109.7163 14.16870792733182
COSMOS 2221             
1 22236U 92080A   26148.61471730  .00001591  00000+0  13778-3 0  9998
2 22236  82.5044 202.5151 0012592 285.1830  74.7999 14.96477204792740
SL-16 R/B               
1 22285U 92093B   26148.52568470  .00000314  00000+0  18508-3 0  9992
2 22285  71.0207 196.6666 0005031 210.5760 149.5070 14.15461317724459
COSMOS 2228             
1 22286U 92094A   26148.77746530  .00002646  00000+0  22403-3 0  9995
2 22286  82.5166 160.6342 0018801  37.2261 323.0261 14.97507562788041
SL-16 R/B               
1 22566U 93016B   26148.78633929 -.00000250  00000+0 -10392-3 0  9994
2 22566  71.0090  46.9561 0011361 212.5411 147.5013 14.15310398713501
COSMOS 2242             
1 22626U 93024A   26148.59444280  .00001809  00000+0  15522-3 0  9998
2 22626  82.5190 190.2866 0017169  41.5637 318.6886 14.96838876792342
SL-16 R/B               
1 22803U 93059B   26148.58621882 -.00000131  00000+0 -40946-4 0  9995
2 22803  70.9898 202.6388 0014778  88.2059 272.0757 14.17244559690856
ARIANE 40 R/B           
1 22830U 93061H   26148.79310911  .00000216  00000+0  94713-4 0  9992
2 22830  98.4823 216.0521 0011574  51.8995 308.3231 14.32898255705574
COSMOS 2278             
1 23087U 94023A   26148.79809580  .00000175  00000+0  11630-3 0  9991
2 23087  71.0539   7.4941 0010743 265.8198  94.1697 14.14385266656133
SL-16 R/B               
1 23088U 94023B   26148.66711708 -.00000268  00000+0 -11366-3 0  9993
2 23088  71.0001 262.9245 0003931 212.3245 147.7637 14.15019347657409
SL-16 R/B               
1 23343U 94074B   26148.67933163  .00000502  00000+0  73792-4 0  9996
2 23343  97.7000 176.2124 0005741 332.6850 141.9520 14.79483255699078
SL-16 R/B               
1 23405U 94077B   26148.61753308  .00000077  00000+0  63896-4 0  9994
2 23405  70.9818 184.3340 0001992 343.6428  16.4630 14.15576358627542
ARIANE 40+ R/B          
1 23561U 95021B   26148.81544347  .00000294  00000+0  10752-3 0  9993
2 23561  98.4414 219.1695 0005533 259.1482 217.1192 14.39821068630777
SL-16 R/B               
1 23705U 95058B   26148.76970646 -.00000182  00000+0 -68952-4 0  9996
2 23705  71.0230  12.1278 0012959 347.0263  13.0525 14.15508407579185
SL-16 R/B               
1 24298U 96051B   26148.76838003  .00000159  00000+0  11287-3 0  9998
2 24298  70.7636   5.7482 0013880   7.3338 352.7982 14.12439011532952
ORBVIEW 2 (SEASTAR)     
1 24883U 97037A   26148.43442032  .00000259  00000+0  10632-3 0  9994
2 24883  98.8671 314.9080 0002421 158.3414 201.7874 14.35541492519918
SL-16 R/B               
1 25400U 98043G   26148.85773149  .00000041  00000+0  35988-4 0  9991
2 25400  98.8356 102.8520 0010509 137.4173 222.7823 14.26064895450416
SL-16 R/B               
1 25407U 98045B   26148.81197943  .00000143  00000+0  96472-4 0  9996
2 25407  71.0123  13.0777 0009586 264.2518  95.7513 14.16199711438448
ISS (ZARYA)             
1 25544U 98067A   26148.77610718  .00012346  00000+0  22817-3 0  9996
2 25544  51.6335  36.1959 0007359 108.4856 251.6933 15.49449908568746
CZ-4B R/B               
1 25732U 99025C   26148.67700434  .00000084  00000+0  60949-4 0  9999
2 25732  98.6495 191.0053 0038180 114.1762 358.3639 14.18279659399508
OKEAN-O                 
1 25860U 99039A   26148.74704756  .00000742  00000+0  10393-3 0  9993
2 25860  97.9325 207.7670 0001940  88.1410 272.0024 14.80440137446231
SL-16 R/B               
1 25861U 99039B   26148.65190544  .00000582  00000+0  80404-4 0  9991
2 25861  97.9848 207.5695 0014767   3.5761 356.5554 14.81822615448704
DELTA 2 R/B             
1 25876U 99041E   26148.49871715  .00000980  00000+0  19527-3 0  9997
2 25876  51.7657 342.4438 0501348 223.8277 132.1832 14.11976202374301
HELIOS 1B               
1 25977U 99064A   26148.67723751  .00001660  00000+0  18755-3 0  9998
2 25977  98.1632  53.2515 0001986 116.9232 243.2187 14.87945910697153
TERRA                   
1 25994U 99068A   26148.84214243  .00000461  00000+0  10283-3 0  9997
2 25994  97.9467 199.1543 0000966 315.9040 104.1330 14.61085316406780
SL-16 R/B               
1 26070U 00006B   26148.77755271  .00000255  00000+0  15384-3 0  9998
2 26070  71.0029 289.4361 0014743  55.5514 304.6999 14.15835156359896
TITAN 4B R/B            
1 26474U 00047B   26148.78653757  .00003284  00000+0  20487-3 0  9993
2 26474  67.9874 175.1776 0045076 307.1243  52.5791 15.10072027405005
ENVISAT                 
1 27386U 02009A   26148.84133220  .00000100  00000+0  46260-4 0  9993
2 27386  98.3827 100.5925 0001266  91.9110 282.7909 14.39059571270700
IDEFIX & ARIANE 42P R/B 
1 27422U 02021B   26148.83238302  .00000248  00000+0  11078-3 0  9995
2 27422  98.5940  86.5258 0011027 316.6025  43.4289 14.31071539255480
AQUA                    
1 27424U 02022A   26148.88653625  .00000915  00000+0  19191-3 0  9997
2 27424  98.4267 117.7856 0001799  61.6507 326.1881 14.62123762280455
CZ-4B R/B               
1 27432U 02024C   26148.80010095  .00000054  00000+0  50325-4 0  9997
2 27432  98.8710 201.7447 0050667 154.3985 324.0126 14.14560769240565
MIDORI II (ADEOS-II)    
1 27597U 02056A   26148.81755154  .00000315  00000+0  14139-3 0  9999
2 27597  98.7869 107.9142 0002060 103.0994 257.0418 14.29337375221744
H-2A R/B                
1 27601U 02056E   26148.88156426  .00000249  00000+0  10206-3 0  9996
2 27601  98.3304 106.2606 0068926 283.0738  89.5471 14.33812216225608
CZ-4B R/B               
1 28059U 03049C   26148.56476133  .00000419  00000+0  10743-3 0  9997
2 28059  98.6894 146.6309 0047894 349.4356  10.5829 14.55084569198218
CZ-2C R/B               
1 28222U 04012C   26148.68117997  .00104731  00000+0  69534-3 0  9997
2 28222  97.7102 222.1326 0009133  14.1973 345.9545 15.75105194216825
SL-16 R/B               
1 28353U 04021B   26148.78623376  .00000096  00000+0  74588-4 0  9991
2 28353  71.0023  64.4037 0007343 275.8208  84.2077 14.14612707134165
CZ-4B R/B               
1 28415U 04035C   26148.64900179  .00010544  00000+0  35667-3 0  9992
2 28415  97.3381 181.9462 0032302  47.3002 313.0951 15.30288988192130
CZ-2C R/B               
1 28480U 04046B   26148.76920086  .00000131  00000+0  64544-4 0  9996
2 28480  98.1959  58.7615 0138120 278.1727  80.3808 14.27021294119927
ARIANE 5 R/B            
1 28499U 04049H   26148.46086632  .00001011  00000+0  11696-3 0  9993
2 28499  98.2708 319.9541 0085247  92.5680 268.5296 14.85414152157631
